{
    "CCSDS_OMM_VERS": "3.0",
    "COMMENT": "GENERATED VIA SPACE-TRACK.ORG API",
    "CREATION_DATE": "2025-05-22T22:46:20",
    "ORIGINATOR": "18 SPCS",
    "OBJECT_NAME": "BEIDOU 5",
    "OBJECT_ID": "2010-036A",
    "CENTER_NAME": "EARTH",
    "REF_FRAME": "TEME",
    "TIME_SYSTEM": "UTC",
    "MEAN_ELEMENT_THEORY": "SGP4",
    "EPOCH": "2025-05-22T16:26:16.937664",
    "MEAN_MOTION": "1.00284337",
    "ECCENTRICITY": "0.00496630",
    "INCLINATION": "54.2714",
    "RA_OF_ASC_NODE": "166.4913",
    "ARG_OF_PERICENTER": "217.5022",
    "MEAN_ANOMALY": "210.1302",
    "EPHEMERIS_TYPE": "0",
    "CLASSIFICATION_TYPE": "U",
    "NORAD_CAT_ID": "36828",
    "ELEMENT_SET_NO": "999",
    "REV_AT_EPOCH": "5431",
    "BSTAR": "0.00000000000000",
    "MEAN_MOTION_DOT": "-0.00000040",
    "MEAN_MOTION_DDOT": "0.0000000000000",
    "SEMIMAJOR_AXIS": "42161.214",
    "PERIOD": "1435.917",
    "APOAPSIS": "35992.464",
    "PERIAPSIS": "35573.693",
    "OBJECT_TYPE": "PAYLOAD",
    "RCS_SIZE": "LARGE",
    "COUNTRY_CODE": "PRC",
    "LAUNCH_DATE": "2010-07-31",
    "SITE": "XSC",
    "DECAY_DATE": null,
    "FILE": "4736443",
    "GP_ID": "288163372",
    "TLE_LINE0": "0 BEIDOU 5",
    "TLE_LINE1": "1 36828U 10036A   25142.68491826 -.00000040  00000-0  00000+0 0  9999",
    "TLE_LINE2": "2 36828  54.2714 166.4913 0049663 217.5022 210.1302  1.00284337 54319"
}